NORAD_CAT_ID,OBJECT_NAME,OBJECT_TYPE,EPOCH,MEAN_MOTION,ECCENTRICITY,INCLINATION,RA_OF_ASC_NODE,ARG_OF_PERICENTER,MEAN_ANOMALY,BSTAR,MEAN_MOTION_DOT,MEAN_MOTION_DDOT,TLE_LINE0,TLE_LINE1,TLE_LINE2,SEMIMAJOR_AXIS,PERIOD,APOGEE,PERIGEE,DECAYED
55636.0,STARLINK-5218,PAYLOAD,2023-10-19 07:05:48,14.98344488,0.0002841,70.001,244.0024,275.279,84.8045,0.00028186,3.273e-05,0.0,0 STARLINK-5218,1 55636U 23021J   23292.29570424  .00003273  00000-0  28186-3 0  9997,2 55636  70.0010 244.0024 0002841 275.2790  84.8045 14.98344488 37325,6950.148,96.106,573.988,570.039,0.0
55636.0,STARLINK-5218,PAYLOAD,2023-10-19 19:54:53,14.98336011,0.0002695,70.0018,242.6561,269.1292,90.9558,0.00013035,1.463e-05,0.0,0 STARLINK-5218,1 55636U 23021J   23292.82978700  .00001463  00000-0  13035-3 0  9991,2 55636  70.0018 242.6561 0002695 269.1292  90.9558 14.98336011 37408,6950.174,96.107,573.912,570.166,0.0
55636.0,STARLINK-5218,PAYLOAD,2023-10-20 07:07:49,14.9833629,0.0002771,70.0017,241.4774,274.7214,85.3629,0.00015291,1.732e-05,0.0,0 STARLINK-5218,1 55636U 23021J   23293.29710625  .00001732  00000-0  15291-3 0  9998,2 55636  70.0017 241.4774 0002771 274.7214  85.3629 14.98336290 37777,6950.173,96.107,573.964,570.113,0.0
55636.0,STARLINK-5218,PAYLOAD,2023-10-20 21:33:03,14.98322612,0.000301,70.0008,239.9628,270.8476,89.2338,-6.1673e-05,-8.29e-06,0.0,0 STARLINK-5218,1 55636U 23021J   23293.89795326 -.00000829  00000-0 -61673-4 0  9999,2 55636  70.0008 239.9628 0003010 270.8476  89.2338 14.98322612 37864,6950.216,96.107,574.173,569.989,0.0
55636.0,STARLINK-5218,PAYLOAD,2023-10-21 00:45:19,14.98322303,0.0003031,70.0008,239.6261,266.6078,93.4734,-5.7488e-05,-7.79e-06,0.0,0 STARLINK-5218,1 55636U 23021J   23294.03147393 -.00000779  00000-0 -57488-4 0  9994,2 55636  70.0008 239.6261 0003031 266.6078  93.4734 14.98322303 37581,6950.217,96.107,574.188,569.975,0.0
55636.0,STARLINK-5218,PAYLOAD,2023-10-21 07:09:50,14.9834484,0.0002874,70.0018,238.9521,278.1036,81.9797,-0.00052655,-6.372e-05,0.0,0 STARLINK-5218,1 55636U 23021J   23294.29850353 -.00006372  00000-0 -52655-3 0  9994,2 55636  70.0018 238.9521 0002874 278.1036  81.9797 14.98344840 37625,6950.147,96.106,574.009,570.015,0.0
55636.0,STARLINK-5218,PAYLOAD,2023-10-21 13:34:23,14.98336364,0.000307,70.0009,238.2794,270.996,89.0847,0.00016402,1.865e-05,0.0,0 STARLINK-5218,1 55636U 23021J   23294.56554811  .00001865  00000-0  16402-3 0  9994,2 55636  70.0009 238.2794 0003070 270.9960  89.0847 14.98336364 37969,6950.173,96.107,574.172,569.905,0.0
55636.0,STARLINK-5218,PAYLOAD,2023-10-21 19:58:55,14.98335371,0.0003072,70.0021,237.6061,265.881,94.1998,0.00033928,3.958e-05,0.0,0 STARLINK-5218,1 55636U 23021J   23294.83258899  .00003958  00000-0  33928-3 0  9998,2 55636  70.0021 237.6061 0003072 265.8810  94.1998 14.98335371 37705,6950.176,96.107,574.176,569.906,0.0
55636.0,STARLINK-5218,PAYLOAD,2023-10-21 21:35:03,14.9834071,0.0002845,70.0025,237.4388,264.9816,95.1018,0.00047144,5.538e-05,0.0,0 STARLINK-5218,1 55636U 23021J   23294.89934777  .00005538  00000-0  47144-3 0  9991,2 55636  70.0025 237.4388 0002845 264.9816  95.1018 14.98340710 38014,6950.16,96.106,574.002,570.047,0.0
55636.0,STARLINK-5218,PAYLOAD,2023-10-22 05:35:43,14.98348606,0.0002815,70.0014,236.5962,263.6896,96.3943,0.00055031,6.482e-05,0.0,0 STARLINK-5218,1 55636U 23021J   23295.23314132  .00006482  00000-0  55031-3 0  9990,2 55636  70.0014 236.5962 0002815 263.6896  96.3943 14.98348606 37764,6950.135,96.106,573.957,570.044,0.0
55636.0,STARLINK-5218,PAYLOAD,2023-10-22 13:36:24,14.98335436,0.0002406,70.0022,235.7544,279.9999,80.0888,0.00014199,1.602e-05,0.0,0 STARLINK-5218,1 55636U 23021J   23295.56694648  .00001602  00000-0  14199-3 0  9998,2 55636  70.0022 235.7544 0002406 279.9999  80.0888 14.98335436 38115,6950.176,96.107,573.713,570.369,0.0
55636.0,STARLINK-5218,PAYLOAD,2023-10-22 21:37:04,14.98320227,0.0002947,70.0012,234.9144,267.658,92.4242,-0.00020404,-2.526e-05,0.0,0 STARLINK-5218,1 55636U 23021J   23295.90075208 -.00002526  00000-0 -20404-3 0  9995,2 55636  70.0012 234.9144 0002947 267.6580  92.4242 14.98320227 38169,6950.223,96.108,574.136,570.04,0.0
55636.0,STARLINK-5218,PAYLOAD,2023-10-23 04:01:35,14.98378036,0.0002767,70.0019,234.2394,253.6308,106.4547,0.0013969,0.00016635,0.0,0 STARLINK-5218,1 55636U 23021J   23296.16777236  .00016635  00000-0  13969-2 0  9995,2 55636  70.0019 234.2394 0002767 253.6308 106.4547 14.98378036 37905,6950.044,96.104,573.832,569.986,0.0
55636.0,STARLINK-5218,PAYLOAD,2023-10-23 05:37:45,14.98323379,0.000256,70.002,234.0707,265.7391,94.3476,-5.4561e-05,-7.44e-06,0.0,0 STARLINK-5218,1 55636U 23021J   23296.23455324 -.00000744  00000-0 -54561-4 0  9995,2 55636  70.0020 234.0707 0002560 265.7391  94.3476 14.98323379 37917,6950.213,96.107,573.858,570.299,0.0
55636.0,STARLINK-5218,PAYLOAD,2023-10-23 20:02:57,14.9833424,0.0002667,70.0009,232.5567,269.4884,90.5969,0.00010511,1.162e-05,0.0,0 STARLINK-5218,1 55636U 23021J   23296.83538900  .00001162  00000-0  10511-3 0  9992,2 55636  70.0009 232.5567 0002667 269.4884  90.5969 14.98334240 38002,6950.18,96.107,573.898,570.191,0.0
55636.0,STARLINK-5218,PAYLOAD,2023-10-23 21:39:05,14.98335543,0.0002613,70.0012,232.3884,264.197,95.8891,0.00013998,1.578e-05,0.0,0 STARLINK-5218,1 55636U 23021J   23296.90214817  .00001578  00000-0  13998-3 0  9991,2 55636  70.0012 232.3884 0002613 264.1970  95.8891 14.98335543 38318,6950.176,96.107,573.857,570.225,0.0
55636.0,STARLINK-5218,PAYLOAD,2023-10-24 04:03:36,14.98393789,0.000303,70.0009,231.7142,265.7599,94.3214,0.0017541,0.00020934,0.0,0 STARLINK-5218,1 55636U 23021J   23297.16916668  .00020934  00000-0  17541-2 0  9997,2 55636  70.0009 231.7142 0003030 265.7599  94.3214 14.98393789 38052,6949.996,96.103,573.966,569.755,0.0
55636.0,STARLINK-5218,PAYLOAD,2023-10-24 05:39:45,14.98341568,0.0002839,70.0009,231.5459,273.1368,86.9466,0.00038636,4.521e-05,0.0,0 STARLINK-5218,1 55636U 23021J   23297.23594634  .00004521  00000-0  38636-3 0  9993,2 55636  70.0009 231.5459 0002839 273.1368  86.9466 14.98341568 38069,6950.157,96.106,573.995,570.049,0.0
55636.0,STARLINK-5218,PAYLOAD,2023-10-24 13:40:26,14.98334931,0.0003184,70.0017,230.7046,270.0205,90.0589,0.00019969,2.291e-05,0.0,0 STARLINK-5218,1 55636U 23021J   23297.56974723  .00002291  00000-0  19969-3 0  9990,2 55636  70.0017 230.7046 0003184 270.0205  90.0589 14.98334931 38418,6950.178,96.107,574.256,569.83,0.0
55636.0,STARLINK-5218,PAYLOAD,2023-10-25 21:43:07,14.98337866,0.000268,70.0018,227.3393,273.6432,86.4421,0.00011516,1.282e-05,0.0,0 STARLINK-5218,1 55636U 23021J   23298.90494601  .00001282  00000-0  11516-3 0  9990,2 55636  70.0018 227.3393 0002680 273.6432  86.4421 14.98337866 38310,6950.169,96.106,573.896,570.171,0.0
55636.0,STARLINK-5218,PAYLOAD,2023-10-26 05:43:47,14.983398,0.000275,70.0018,226.4979,273.8377,86.2468,0.00013952,1.573e-05,0.0,0 STARLINK-5218,1 55636U 23021J   23299.23874380  .00001573  00000-0  13952-3 0  9992,2 55636  70.0018 226.4979 0002750 273.8377  86.2468 14.98339800 38665,6950.163,96.106,573.939,570.116,0.0
55636.0,STARLINK-5218,PAYLOAD,2023-10-26 21:45:07,14.98339111,0.0002758,70.0025,224.8144,266.3068,93.7776,0.00015572,1.766e-05,0.0,0 STARLINK-5218,1 55636U 23021J   23299.90634153  .00001766  00000-0  15572-3 0  9992,2 55636  70.0025 224.8144 0002758 266.3068  93.7776 14.98339111 38762,6950.165,96.106,573.947,570.113,0.0
55636.0,STARLINK-5218,PAYLOAD,2023-10-27 04:09:40,14.98335949,0.0002799,70.0016,224.1403,269.1539,90.93,7.6493e-05,8.2e-06,0.0,0 STARLINK-5218,1 55636U 23021J   23300.17338124  .00000820  00000-0  76493-4 0  9993,2 55636  70.0016 224.1403 0002799 269.1539  90.9300 14.98335949 38501,6950.174,96.107,573.985,570.094,0.0
55636.0,STARLINK-5218,PAYLOAD,2023-10-27 12:10:20,14.98342141,0.0002821,70.0017,223.2985,280.5733,79.5108,-0.00012079,-1.534e-05,0.0,0 STARLINK-5218,1 55636U 23021J   23300.50717665 -.00001534  00000-0 -12079-3 0  9995,2 55636  70.0017 223.2985 0002821 280.5733  79.5108 14.98342141 38855,6950.155,96.106,573.981,570.06,0.0
55636.0,STARLINK-5218,PAYLOAD,2023-10-27 18:34:53,14.98306192,0.0002901,70.0027,222.6256,272.9076,87.1751,6.903e-05,7.3e-06,0.0,0 STARLINK-5218,1 55636U 23021J   23300.77423565  .00000730  00000-0  69030-4 0  9992,2 55636  70.0027 222.6256 0002901 272.9076  87.1751 14.98306192 38590,6950.267,96.109,574.148,570.115,0.0
55636.0,STARLINK-5218,PAYLOAD,2023-10-27 21:47:09,14.98323258,0.0003128,70.0012,222.289,275.9997,84.0806,7.695e-05,8.25e-06,0.0,0 STARLINK-5218,1 55636U 23021J   23300.90774788  .00000825  00000-0  76950-4 0  9997,2 55636  70.0012 222.2890 0003128 275.9997  84.0806 14.98323258 38916,6950.214,96.107,574.253,569.905,0.0
55636.0,STARLINK-5218,PAYLOAD,2023-10-28 00:59:24,14.98338044,0.0002923,70.002,221.9524,274.4458,85.6367,0.00020366,2.338e-05,0.0,0 STARLINK-5218,1 55636U 23021J   23301.04126062  .00002338  00000-0  20366-3 0  9999,2 55636  70.0020 221.9524 0002923 274.4458  85.6367 14.98338044 38630,6950.168,96.106,574.065,570.001,0.0
55636.0,STARLINK-5218,PAYLOAD,2023-10-28 12:12:21,14.98327044,0.0002942,70.0027,220.7744,272.2043,87.8779,-2.4957e-05,-3.91e-06,0.0,0 STARLINK-5218,1 55636U 23021J   23301.50858634 -.00000391  00000-0 -24957-4 0  9997,2 55636  70.0027 220.7744 0002942 272.2043  87.8779 14.98327044 38702,6950.202,96.107,574.112,570.022,0.0
55636.0,STARLINK-5218,PAYLOAD,2023-10-28 21:49:10,14.98333994,0.0002623,70.0021,219.7643,263.7127,96.3734,0.00027646,3.208e-05,0.0,0 STARLINK-5218,1 55636U 23021J   23301.90914550  .00003208  00000-0  27646-3 0  9996,2 55636  70.0021 219.7643 0002623 263.7127  96.3734 14.98333994 39063,6950.181,96.107,573.869,570.223,0.0
55636.0,STARLINK-5218,PAYLOAD,2023-10-29 04:13:41,14.98366841,0.0002579,70.0036,219.0914,279.3296,80.7571,0.0012438,0.00014793,0.0,0 STARLINK-5218,1 55636U 23021J   23302.17617554  .00014793  00000-0  12438-2 0  9993,2 55636  70.0036 219.0914 0002579 279.3296  80.7571 14.98366841 38807,6950.079,96.105,573.736,570.152,0.0
